#dP2021  1 21  0  0  0.00000000     289 ORBIT ITRF  BHN ESOC                    
## 2141 345600.00000000   300.00000000 59235 0.0000000000000                    
+  114   G13G28G21G22G07G05G20G31G17G16G29G12G19G02G25G01G30                    
+        G24G27G06G09G03G32G26G08G10G04G18G23G14R09R11R20R19                    
+        R13R01R22R16R08R03R07R02R17R14R18R21R05R15R12R04R24                    
+        E11E12E19E18E14E26E24E30E08E09E01E02E07E03E04E05E21                    
+        E25E27E31E36E13E15E33C11C12C14C19C20C27C28C22C21C29                    
+        C30C23C24C26C25C32C33C35C34C36C37C46C45C44C43C41C42                    
+        C06C07C08C09C10C16C38C39C40J01J02J03  0  0  0  0  0                    
++         5  5  5  5  5  5  5  5  5  5  5  5  5  5  5  5  5                    
++         5  5  4  5  5  5  5  4  5  5  5  5  5  5  5  5  6                    
++         5  6  7  6  5  6  5  5  5  5  5  5  5  5  6  6  5                    
++         5  5  5  4  5  5  5  5  5  5  5  5  5  5  5  5  5                    
++         5  5  5  4  5  5  5  5  5  6  5  6  6  6  5  5  5                    
++         5  6  5  5  5  6  6  5  5  6  6  7  7  6  6  7  7                    
++         6  6  7  6  6  6  8  8  7  7  6  7  0  0  0  0  0                    
%c M  cc GPS ccc cccc cccc cccc cccc ccccc ccccc ccccc ccccc                    
%c cc cc ccc ccc cccc cccc cccc cccc ccccc ccccc ccccc ccccc                    
%f  0.0000000  0.000000000  0.00000000000  0.000000000000000                    
%f  0.0000000  0.000000000  0.00000000000  0.000000000000000                    
%i    0    0    0    0      0      0      0      0         0                    
%i    0    0    0    0      0      0      0      0         0                    
/* CCCCCCCCCCCCCCCCCCCCCCCCCCCCCCCCCCCCCCCCCCCCCCCCCCCCCCCCCCCCCCCCCCCCCCCCCCCCC
/* CCCCCCCCCCCCCCCCCCCCCCCCCCCCCCCCCCCCCCCCCCCCCCCCCCCCCCCCCCCCCCCCCCCCCCCCCCCCC
/* CCCCCCCCCCCCCCCCCCCCCCCCCCCCCCCCCCCCCCCCCCCCCCCCCCCCCCCCCCCCCCCCCCCCCCCCCCCCC
/* PCV:IGS        OL/AL:EOT11A   NONE     YN ORB:CoN CLK:CoN                    
*  2021  1 21 10 50  0.00000000                                                 
PG13  15045.239072  -1950.522500  21672.444100     88.298465                    
PG28  18650.114072  13042.707574  14100.394287    626.737954                    
PG21 -17290.718863  18653.497287   7587.005195     88.709329                    
PG22 -18743.280194  11185.545937 -14821.301655   -694.313204                    
PG07  -1995.537234  21639.890124  15258.514908     29.758960                    
PG05  25447.701436  -3652.900593   6895.773583    -31.565040                    
PG20  -7296.855737 -14856.530767  20758.113828    525.067153                    
PG31 -15403.060381  -4438.906156 -21318.738648    -95.224448                    
PG17  14075.418786  20926.420800  -7906.813274    382.987276                    
PG16 -26045.684046   -359.685532   6093.451296   -268.282448                    
PG29  -3318.184856 -24818.267843  -8836.590650   -279.926762                    
PG12  15133.620087 -10781.985060 -19160.310306      9.953327                    
PG19  16058.244076  14994.801164 -15267.059449    -49.041520                    
PG02  18356.901400  -8031.848521 -16781.437575   -568.364919                    
PG25   -206.431455 -15340.265587 -21943.285189     64.223034                    
PG01 -13998.609126  22271.883030  -2144.506510    776.402914                    
PG30   7788.858829  14903.424687  20560.749994   -372.364078                    
PG24  15284.217739 -21214.490795   2998.227933      3.395992                    
PG27 -16185.221381  -1142.062323  20948.123796    -60.424285                    
PG06  13096.551732   6878.163441 -21997.359266     -4.406896                    
PG09   5654.865572  24637.616833  -8176.299221   -315.009631                    
PG03 -10707.088667  13218.485139 -20451.262835    -61.965274                    
PG32 -16084.691240 -19343.243534  -8684.001564     15.392790                    
PG26 -25756.092424  -4840.753693  -5164.260408     33.167105                    
PG08  -9842.934910  12781.657572  21052.441146     -7.400875                    
PG10 -18852.922710 -11766.324315  14847.250349    -44.010631                    
PG04  -4774.101443  19528.850900 -17326.920930   -174.394162                    
PG18    534.335645 -20499.043330  16845.252067    342.751065                    
PG23  -8078.092886 -14765.475196  20530.568357    116.837248                    
PG14  16624.340845  13355.246236  15830.622344     88.617566                    
PR09   6159.377931 -13853.000369 -20519.056599     19.756203                    
PR11 -22648.180458   4858.710672 -10667.178216      4.303120                    
PR20   3499.097208 -25287.643165    428.761668   -431.625693                    
PR19  10157.703203 -15313.775227 -17682.597816   -128.815937                    
PR13  -6624.994551  13728.955938  20434.071479    -49.625000                    
PR01 -13087.982330   3517.425167 -21609.954328     73.790253                    
PR22 -10444.130977   -280.857203  23261.065589    -93.668457                    
PR16  19834.907859 -13698.031371  -8161.327150    -10.457660                    
PR08 -20763.157107  -7931.728432 -12485.983178    -56.981501                    
PR03  18935.815235  16480.074370  -4328.391465     29.520789                    
PR07 -19204.444585 -16398.673139   3802.729228    -42.240293                    
PR02   6212.532260  15790.194220 -18983.795195    463.742965                    
PR17   5636.891607  18271.345848 -16887.901986    393.133674                    
PR14  11818.287913   6217.896466  21742.233641     60.082044                    
PR18  10364.238992   1357.387851 -23246.126734     63.894376                    
PR21  -6005.640365 -17321.069349  17731.786073   -181.960097                    
PR05  10913.651992  -5034.712468  22502.194203     65.108566                    
PR15  22849.707851  -4659.914135  10344.265590    105.777913                    
PR12 -20716.517432  12996.463422   7323.135324    198.433621                    
PR04  20717.809288   7933.400375  12605.001200     70.843987                    
PR24  -2855.529210  25329.930150  -1089.762721     28.576980                    
PE11  10389.091004 -27707.116612   1024.260981   6437.411494                    
PE12  18379.715984 -15660.199970 -17122.927907   5395.827186                    
PE19  22270.018408  15857.185400  11340.039517    183.856891                    
PE18   7254.422750 -22867.787452 -18086.110845  -1423.376990                    
PE14   3916.205513  25733.062764   7163.609102  -1302.290740                    
PE26   3864.394741  22881.099338 -18366.842809   2240.215006                    
PE24  11826.178402 -16288.213502 -21704.227732   -701.180186                    
PE30 -27500.234546   8373.154951   7095.832340   3245.410827                    
PE08 -16805.448288   5462.522112 -23749.442510   6058.805507                    
PE09   1151.812901 -21545.052758  20257.585498   5791.875742                    
PE01  27015.611147   4141.266028  11350.689066  -1029.356881                    
PE02 -27088.942145  -4062.921928 -11250.472650    192.625211                    
PE07  -1483.478769  21543.220879 -20247.795875   -490.514540                    
PE03 -22547.764236 -13914.765996 -13192.980236   -389.759191                    
PE04  17125.369468  -5150.820346  23586.510482   -693.331192                    
PE05 -14817.284575 -25110.601140   5107.449786   -311.116494                    
PE21  11539.604271  14213.700370  23254.630021   -644.055400                    
PE25 -11371.894437 -14270.133739 -23305.154363   -524.780399                    
PE27 -11137.877539  16395.696196  21991.403753     46.579510                    
PE31  27114.332978  -8924.399592  -7808.139118   -477.559531                    
PE36  -3385.840054 -23260.570449  18005.122813    451.328375                    
PE13 -10543.171222  27649.397402   -611.781603    410.651806                    
PE15 -18273.713121  15762.901999  17152.078742    833.216109                    
PE33  15241.204194   5362.589083 -24788.408025   -465.042556                    
PC11  -2741.890582  27078.323815   6331.471447   -901.225481                    
PC12 -12385.523839  14783.371377  20218.971323    743.997544                    
PC14  -1113.985656  16683.537159 -22326.601903    -47.757112                    
PC19  -9379.969167 -18655.838913  18529.548378    698.787877                    
PC20  10033.489856 -12669.795874  22764.345893   -910.088980                    
PC27  15536.248398  -4204.664216 -22810.670973    469.989143                    
PC28  13403.773554  16604.145509 -17978.049661   -119.174186                    
PC22 -23880.377648 -14013.789963   3377.941156   -851.870173                    
PC21 -24335.764030  -1210.348195 -13575.144183   -802.278097                    
PC29  -4487.273235 -27417.815130   2645.728314    341.484700                    
PC30   7979.957448 -22433.076830 -14571.573576    434.101473                    
PC23  16687.780922   7072.416841  21215.754483   -879.861069                    
PC24 -18827.549775  19156.423263   7620.630616   -745.490611                    
PC26 -24653.741678   9720.583186  -8814.878417    959.802050                    
PC25   -450.241081  18527.788795  20862.938176   -905.146595                    
PC32  24367.734469   1022.742495  13577.445939   -885.266316                    
PC33   9416.527444  18619.222750 -18533.450998   -925.583247                    
PC35 -13930.580020 -16418.959438  17771.718956   -455.512527                    
PC34  -7692.771348  22831.461255  14057.683102   -758.249512                    
PC36   1198.570460 -18612.662496 -20735.716224   -772.165490                    
PC37  24798.226090  -8490.887594   9554.153735   -860.942671                    
PC46  18186.697600 -19387.880644  -8419.511191    442.099770                    
PC45 -16714.946264  -6869.217933 -21271.830909    340.961812                    
PC44 -15551.857976   4434.275750  22738.441684     -2.259906                    
PC43   4070.625700  27505.450364  -2212.687073   -561.935540                    
PC41  23836.493927  14043.479330  -3561.006486   -934.410051                    
PC42 -10689.760326  12325.405579 -22598.713170   -812.966107                    
PC06  -7696.196085  35282.070325 -20972.413290     23.126934                    
PC07 -14273.500251  23428.645608  32186.105759   -248.295477                    
PC08 -24290.240476  32755.680308 -11335.719916   -919.155268                    
PC09   2371.469864  41255.571524  -6827.281786    788.497434                    
PC10    -52.548902  26858.795875  32748.549163   -100.292472                    
PC16  -6508.233569  35958.178198 -20782.703820   -667.142157                    
PC38 -21917.080697  33844.371560 -12505.667703    125.159706                    
PC39  -3039.584842  37041.898975 -19783.884854     27.599226                    
PC40  -6520.463000  21315.814661  35808.944606    123.407714                    
PJ01 -25007.868968  16338.254324 -25175.071359   -337.240416                    
PJ02 -31550.646550  25300.229945  16718.193764      0.944951                    
PJ03 -25957.757659  27190.836369  24277.608050     -0.194104                    
EOF                                                                             
